NORAD_CAT_ID,OBJECT_NAME,OBJECT_TYPE,EPOCH,MEAN_MOTION,ECCENTRICITY,INCLINATION,RA_OF_ASC_NODE,ARG_OF_PERICENTER,MEAN_ANOMALY,BSTAR,MEAN_MOTION_DOT,MEAN_MOTION_DDOT,TLE_LINE0,TLE_LINE1,TLE_LINE2,SEMIMAJOR_AXIS,PERIOD,APOGEE,PERIGEE,DECAYED
51121.0,STARLINK-3399,PAYLOAD,2022-04-17 22:00:00,15.48941453,0.0001884,53.214,196.3545,33.7754,323.9507,-0.00029659,-0.00016695,0.0,0 STARLINK-3399,1 51121U 22005T   22107.91667824 -.00016695  00000-0 -29659-3 0  9997,2 51121  53.2140 196.3545 0001884  33.7754 323.9507 15.48941453  3691,6797.958000000001,92.967,421.104,418.543,0.0
51121.0,STARLINK-3399,PAYLOAD,2022-04-18 06:00:00,15.48931246,0.0001849,53.2142,194.7627,39.0326,18.4492,0.00048266,0.00026131,0.0,0 STARLINK-3399,1 51121U 22005T   22108.25001157  .00026131  00000-0  48266-3 0  9995,2 51121  53.2142 194.7627 0001849  39.0326  18.4492 15.48931246 15333,6797.988,92.967,421.11,418.596,0.0
51121.0,STARLINK-3399,PAYLOAD,2022-04-18 14:00:01,15.48682855,0.0001935,53.2165,193.1686,29.3729,87.9448,0.0049177,0.00276808,0.0,0 STARLINK-3399,1 51121U 22005T   22108.58334491  .00276808  00000-0  49177-2 0  9990,2 51121  53.2165 193.1686 0001935  29.3729  87.9448 15.48682855 15387,6798.715,92.982,421.896,419.265,0.0
51121.0,STARLINK-3399,PAYLOAD,2022-04-18 20:00:01,15.49060289,0.0001951,53.2158,191.9753,33.2306,38.8595,-0.010641,-0.00547793,0.0,0 STARLINK-3399,1 51121U 22005T   22108.83334491 -.00547793  00000-0 -10641-1 0  9997,2 51121  53.2158 191.9753 0001951  33.2306  38.8595 15.49060289 15428,6797.611,92.96,420.802,418.15,0.0
51121.0,STARLINK-3399,PAYLOAD,2022-04-18 22:00:00,15.48880136,0.0001934,53.2163,191.5759,34.361999999999995,142.7148,-0.0066676,-0.00349862,0.0,0 STARLINK-3399,1 51121U 22005T   22108.91667824 -.00349862  00000-0 -66676-2 0  9992,2 51121  53.2163 191.5759 0001934  34.3620 142.7148 15.48880136  3693,6798.138000000001,92.97,421.318,418.68800000000016,0.0
51121.0,STARLINK-3399,PAYLOAD,2022-04-19 06:00:00,15.48756843,0.0001725,53.2177,189.9803,37.6509,198.9663,-0.012823,-0.0064495,0.0,0 STARLINK-3399,1 51121U 22005T   22109.25001157 -.00644950  00000-0 -12823-1 0  9991,2 51121  53.2177 189.9803 0001725  37.6509 198.9663 15.48756843 15492,6798.499,92.978,421.536,419.191,0.0
51121.0,STARLINK-3399,PAYLOAD,2022-04-19 14:00:01,15.48297956,0.0002131,53.2177,188.3904,27.3238,268.5709,-0.012974,-0.00642362,0.0,0 STARLINK-3399,1 51121U 22005T   22109.58334491 -.00642362  00000-0 -12974-1 0  9999,2 51121  53.2177 188.3904 0002131  27.3238 268.5709 15.48297956  3693,6799.842,93.005,423.156,420.258,0.0
51121.0,STARLINK-3399,PAYLOAD,2022-04-20 14:00:01,15.46930255,0.0001948,53.2174,183.6215,27.2818,83.1568,-0.013589,-0.00641408,0.0,0 STARLINK-3399,1 51121U 22005T   22110.58334491 -.00641408  00000-0 -13589-1 0  9994,2 51121  53.2174 183.6215 0001948  27.2818  83.1568 15.46930255 15692,6803.849,93.088,427.04,424.389,0.0
51121.0,STARLINK-3399,PAYLOAD,2022-04-20 22:00:00,15.46475063,0.000168,53.2173,182.0324,41.9856,125.5397,-0.013818,-0.00641891,0.0,0 STARLINK-3399,1 51121U 22005T   22110.91667824 -.00641891  00000-0 -13818-1 0  9991,2 51121  53.2173 182.0324 0001680  41.9856 125.5397 15.46475063  3670,6805.184,93.115,428.193,425.906,0.0
51121.0,STARLINK-3399,PAYLOAD,2022-04-21 14:00:01,15.45562125,0.0001681,53.2174,178.8623,42.3621,237.6922,-0.0142,-0.00639335,0.0,0 STARLINK-3399,1 51121U 22005T   22111.58334491 -.00639335  00000-0 -14200-1 0  9992,2 51121  53.2174 178.8623 0001681  42.3621 237.6922 15.45562125  3698,6807.864000000001,93.17,430.87300000000016,428.584,0.0
51121.0,STARLINK-3399,PAYLOAD,2022-04-21 22:00:00,15.45108625,0.0001472,53.2174,177.2764,44.1405,291.3574,-0.014524,-0.00643415,0.0,0 STARLINK-3399,1 51121U 22005T   22111.91667824 -.00643415  00000-0 -14524-1 0  9991,2 51121  53.2174 177.2764 0001472  44.1405 291.3574 15.45108625  3674,6809.196,93.197,432.06300000000016,430.059,0.0
51121.0,STARLINK-3399,PAYLOAD,2022-04-22 14:00:01,15.44193406,0.0001644,53.2175,174.113,38.332,46.41,-0.014831,-0.00637263,0.0,0 STARLINK-3399,1 51121U 22005T   22112.58334491 -.00637263  00000-0 -14831-1 0  9991,2 51121  53.2175 174.1130 0001644  38.3320  46.4100 15.44193406  3696,6811.886,93.253,434.871,432.631,0.0
51121.0,STARLINK-3399,PAYLOAD,2022-04-22 22:00:00,15.43738986,0.0001626,53.2174,172.5303,41.8097,96.7331,-0.015099,-0.0063868,0.0,0 STARLINK-3399,1 51121U 22005T   22112.91667824 -.00638680  00000-0 -15099-1 0  9998,2 51121  53.2174 172.5303 0001626  41.8097  96.7331 15.43738986 16065,6813.223000000001,93.28,436.196,433.98,0.0
51121.0,STARLINK-3399,PAYLOAD,2022-04-23 14:00:01,15.42696761,0.0001884,53.2169,169.3749,44.7876,199.7801,-0.011059,-0.0046208,0.0,0 STARLINK-3399,1 51121U 22005T   22113.58334491 -.00462080  00000-0 -11059-1 0  9994,2 51121  53.2169 169.3749 0001884  44.7876 199.7801 15.42696761  3649,6816.291,93.343,439.44,436.872,0.0
51121.0,STARLINK-3399,PAYLOAD,2022-04-24 06:00:00,15.41918292,0.000185,53.2178,166.2176,30.2111,318.0567,-0.016151,-0.00649693,0.0,0 STARLINK-3399,1 51121U 22005T   22114.25001157 -.00649693  00000-0 -16151-1 0  9994,2 51121  53.2178 166.2176 0001850  30.2111 318.0567 15.41918292 16266,6818.585,93.39,441.712,439.189,0.0
51121.0,STARLINK-3399,PAYLOAD,2022-04-24 14:00:01,15.41458932,0.00018,53.2174,164.6435,31.0023,8.3284,-0.01624,-0.00636241,0.0,0 STARLINK-3399,1 51121U 22005T   22114.58334491 -.00636241  00000-0 -16240-1 0  9994,2 51121  53.2174 164.6435 0001800  31.0023   8.3284 15.41458932  3674,6819.94,93.418,443.032,440.577,0.0
51121.0,STARLINK-3399,PAYLOAD,2022-04-25 14:00:01,15.40089288,0.0001945,53.2172,159.9234,35.271,153.9624,-0.016868,-0.00639101,0.0,0 STARLINK-3399,1 51121U 22005T   22115.58334491 -.00639101  00000-0 -16868-1 0  9999,2 51121  53.2172 159.9234 0001945  35.2710 153.9624 15.40089288 16475,6823.983,93.501,447.175,444.52,0.0
51121.0,STARLINK-3399,PAYLOAD,2022-04-25 22:00:00,15.39636714,0.0001701,53.2174,158.3503,42.5255,195.58,-0.017272,-0.00644264,0.0,0 STARLINK-3399,1 51121U 22005T   22115.91667824 -.00644264  00000-0 -17272-1 0  9991,2 51121  53.2174 158.3503 0001701  42.5255 195.5800 15.39636714  3681,6825.32,93.529,448.346,446.024,0.0
51121.0,STARLINK-3399,PAYLOAD,2022-04-26 14:00:01,15.38725156,0.0001575999999999,53.2173,155.2131,40.6884,293.5813,-0.017782,-0.0064367,0.0,0 STARLINK-3399,1 51121U 22005T   22116.58335648 -.00643670  00000-0 -17782-1 0  9997,2 51121  53.2173 155.2131 0001576  40.6884 293.5813 15.38725156 16629,6828.015,93.584,450.956,448.804,0.0
51121.0,STARLINK-3399,PAYLOAD,2022-04-26 22:00:00,15.38269265,0.0001492,53.2174,153.6433,41.1175,340.3189,-0.01807,-0.0064432,0.0,0 STARLINK-3399,1 51121U 22005T   22116.91667824 -.00644320  00000-0 -18070-1 0  9992,2 51121  53.2174 153.6433 0001492  41.1175 340.3189 15.38269265  3642,6829.364000000001,93.612,452.24800000000016,450.21,0.0
51121.0,STARLINK-3399,PAYLOAD,2022-04-27 14:00:01,15.37214899,0.000193,53.2163,150.5141,38.3822,76.0115,-0.012925,-0.00451017,0.0,0 STARLINK-3399,1 51121U 22005T   22117.58335648 -.00451017  00000-0 -12925-1 0  9994,2 51121  53.2163 150.5141 0001930  38.3822  76.0115 15.37214899 16778,6832.486999999999,93.676,455.67,453.033,0.0
51121.0,STARLINK-3399,PAYLOAD,2022-04-27 22:00:00,15.36902109,0.0001846,53.2173,148.946,35.5499,124.2886,-0.018877,-0.00643807,0.0,0 STARLINK-3399,1 51121U 22005T   22117.91667824 -.00643807  00000-0 -18877-1 0  9997,2 51121  53.2173 148.9460 0001846  35.5499 124.2886 15.36902109 16834,6833.4140000000025,93.695,456.54,454.017,0.0
51121.0,STARLINK-3399,PAYLOAD,2022-04-28 14:00:01,15.35991621,0.0001641999999999,53.2172,145.8216,46.0036,203.3635,-0.019478,-0.00644894,0.0,0 STARLINK-3399,1 51121U 22005T   22118.58334491 -.00644894  00000-0 -19478-1 0  9997,2 51121  53.2172 145.8216 0001642  46.0036 203.3635 15.35991621  3682,6836.114000000001,93.751,459.101,456.856,0.0
51121.0,STARLINK-3399,PAYLOAD,2022-04-28 20:00:01,15.35649663,0.0001834,53.2175,144.6488,39.0804,153.2969,-0.01969,-0.00644794,0.0,0 STARLINK-3399,1 51121U 22005T   22118.83334491 -.00644794  00000-0 -19690-1 0  9990,2 51121  53.2175 144.6488 0001834  39.0804 153.2969 15.35649663 16976,6837.128000000002,93.771,460.247,457.74,0.0
51121.0,STARLINK-3399,PAYLOAD,2022-04-29 14:00:01,15.34624949,0.0001476,53.2173,141.1405,42.7406,336.8145,-0.020365,-0.00645231,0.0,0 STARLINK-3399,1 51121U 22005T   22119.58334491 -.00645231  00000-0 -20365-1 0  9991,2 51121  53.2173 141.1405 0001476  42.7406 336.8145 15.34624949  3673,6840.172,93.834,463.046,461.027,0.0
51121.0,STARLINK-3399,PAYLOAD,2022-04-29 22:00:00,15.34167741,0.0001738,53.2174,139.5804,33.2304,28.6277,-0.020624,-0.00644074,0.0,0 STARLINK-3399,1 51121U 22005T   22119.91667824 -.00644074  00000-0 -20624-1 0  9999,2 51121  53.2174 139.5804 0001738  33.2304  28.6277 15.34167741 17131,6841.531,93.862,464.585,462.207,0.0
51121.0,STARLINK-3399,PAYLOAD,2022-04-30 14:00:01,15.33257359,0.0001726,53.2172,136.4689,40.5943,104.2212,-0.021265,-0.00645056,0.0,0 STARLINK-3399,1 51121U 22005T   22120.58334491 -.00645056  00000-0 -21265-1 0  9998,2 51121  53.2172 136.4689 0001726  40.5943 104.2212 15.33257359  3648,6844.239000000001,93.918,467.285,464.922,0.0
51121.0,STARLINK-3399,PAYLOAD,2022-04-30 22:00:00,15.32801947,0.0001827,53.2172,134.9122,38.9757,146.4989,-0.021613,-0.00646153,0.0,0 STARLINK-3399,1 51121U 22005T   22120.91667824 -.00646153  00000-0 -21613-1 0  9990,2 51121  53.2172 134.9122 0001827  38.9757 146.4989 15.32801947  3667,6845.594,93.946,468.71,466.208,0.0
51121.0,STARLINK-3399,PAYLOAD,2022-05-01 06:00:00,15.32344375,0.0001979,53.2175,133.3598,35.2978,190.2872,-0.021813,-0.00643021,0.0,0 STARLINK-3399,1 51121U 22005T   22121.25001157 -.00643021  00000-0 -21813-1 0  9992,2 51121  53.2175 133.3598 0001979  35.2978 190.2872 15.32344375 17348,6846.956999999999,93.974,470.177,467.467,0.0
